[Satellite]
VERSION=1.1
NAME=GSAT-19
NICKNAME=GSAT-19
TLE1=1 42747U 17031A   17186.06006193 -.00000165  00000-0  00000-0 0  9997
TLE2=2 42747   0.0372 276.9807 0003357 170.1689 300.1842  1.00270722   365
